[{"OBJECT_NAME":"STARLINK-3154","OBJECT_ID":"2021-104K","EPOCH":"2026-03-09T17:38:14.440704","MEAN_MOTION":15.08837008,"ECCENTRICITY":0.00013653,"INCLINATION":53.2175,"RA_OF_ASC_NODE":218.5721,"ARG_OF_PERICENTER":84.3986,"MEAN_ANOMALY":275.7162,"EPHEMERIS_TYPE":0,"CLASSIFICATION_TYPE":"U","NORAD_CAT_ID":49417,"ELEMENT_SET_NO":999,"REV_AT_EPOCH":23877,"BSTAR":1.4843761e-5,"MEAN_MOTION_DOT":-5.2e-7,"MEAN_MOTION_DDOT":0},{"OBJECT_NAME":"CZ-6A DEB","OBJECT_ID":"2022-151YC","EPOCH":"2026-03-09T04:14:53.282976","MEAN_MOTION":14.99280007,"ECCENTRICITY":0.00518471,"INCLINATION":98.6024,"RA_OF_ASC_NODE":155.4435,"ARG_OF_PERICENTER":132.3409,"MEAN_ANOMALY":228.2221,"EPHEMERIS_TYPE":0,"CLASSIFICATION_TYPE":"U","NORAD_CAT_ID":55530,"ELEMENT_SET_NO":999,"REV_AT_EPOCH":17201,"BSTAR":0.0041206483,"MEAN_MOTION_DOT":0.00051995,"MEAN_MOTION_DDOT":0}]
